IRNSS-1C                
1 40269U 14061A   25008.33654479 -.00000151  00000+0  00000+0 0  9995
2 40269   5.1825  99.8746 0017978   3.9732 208.3081  1.00267686 37427
GPS BIIF-8  (PRN 03)    
1 40294U 14068A   25008.42042498 -.00000059  00000+0  00000+0 0  9999
2 40294  56.5932  51.2490 0054521  64.3968 296.2244  2.00572793 74684
COSMOS 2501 (702K)      
1 40315U 14075A   25007.73029703  .00000121  00000+0  00000+0 0  9997
2 40315  63.6175 208.5726 0019058 203.4920 156.4716  2.13101315 78659
GPS BIIF-9  (PRN 26)    
1 40534U 15013A   25008.55571950  .00000091  00000+0  00000+0 0  9996
2 40534  53.2785 225.8886 0096705  33.5590 327.1187  2.00553102 71307
GSAT0203 (GALILEO 7)    
1 40544U 15017A   25008.22006928 -.00000079  00000+0  00000+0 0  9990
2 40544  56.9128 355.8921 0006064 275.4120  84.5234  1.70475667 60252
GSAT0204 (GALILEO 8)    
1 40545U 15017B   25007.30163429 -.00000075  00000+0  00000+0 0  9995
2 40545  56.9191 355.9333 0005659 265.8324  94.1090  1.70475297 60907
IRNSS-1D                
1 40547U 15018A   25008.45951972 -.00000255  00000+0  00000+0 0  9993
2 40547  27.0799 249.1280 0019512 180.5220 316.0092  1.00270872 35723
BEIDOU-3S IGSO-1S (C31) 
1 40549U 15019A   25007.79953080 -.00000189  00000+0  00000+0 0  9990
2 40549  50.1904 301.7661 0034273 197.8409 350.6232  1.00258095 35801
GPS BIIF-10 (PRN 08)    
1 40730U 15033A   25008.21800690 -.00000049  00000+0  00000+0 0  9999
2 40730  54.4160 288.6744 0102126  21.8821 338.5833  2.00556317 69466
BEIDOU-3S M2S (C58)     
1 40748U 15037A   25006.56929072 -.00000076  00000+0  00000+0 0  9994
2 40748  55.3241 320.1088 0011898 267.3573  92.5095  1.86228941 64312
BEIDOU-3S M1S (C57)     
1 40749U 15037B   25006.30593365 -.00000074  00000+0  00000+0 0  9997
2 40749  55.3269 320.1044 0004635 333.5059  26.4738  1.86227394 64301
GSAT0205 (GALILEO 9)    
1 40889U 15045A   25007.07032673  .00000062  00000+0  00000+0 0  9992
2 40889  55.1289 236.1378 0006181  40.8895 319.2348  1.70473109 58040
GSAT0206 (GALILEO 10)   
1 40890U 15045B   25007.87753662  .00000065  00000+0  00000+0 0  9993
2 40890  55.1275 236.1105 0004168  41.8063 318.3046  1.70473235 58085
BEIDOU-3S IGSO-2S (C56) 
1 40938U 15053A   25008.62540064 -.00000117  00000+0  00000+0 0  9998
2 40938  50.0351 264.9988 0051762 187.5927 335.8360  1.00258508 34088
GPS BIIF-11 (PRN 10)    
1 41019U 15062A   25008.27737416 -.00000059  00000+0  00000+0 0  9994
2 41019  56.5715  51.1100 0102732 227.2951 131.8915  2.00562801 67305
GSAT-15 (GAGAN/PRN 139) 
1 41028U 15065A   25008.41013258 -.00000246  00000+0  00000+0 0  9992
2 41028   0.0133 326.0040 0002157 303.4493  79.8814  1.00271453 33534
GSAT0209 (GALILEO 12)   
1 41174U 15079A   25008.63295148 -.00000015  00000+0  00000+0 0  9997
2 41174  55.5244 115.6689 0002652 321.0718  38.8910  1.70474532 56415
GSAT0208 (GALILEO 11)   
1 41175U 15079B   25007.67969249 -.00000005  00000+0  00000+0 0  9990
2 41175  55.5221 115.6927 0002181 318.6874  41.2827  1.70474354 56235
IRNSS-1E                
1 41241U 16003A   25008.62916690 -.00000313  00000+0  00000+0 0  9992
2 41241  32.0982  70.4212 0021567 189.8632 186.4410  1.00272048 32948
GPS BIIF-12 (PRN 32)    
1 41328U 16007A   25008.36223840 -.00000023  00000+0  00000+0 0  9999
2 41328  55.2184 110.2976 0084835 240.0078 119.1478  2.00551692 65316
COSMOS 2514 (751)       
1 41330U 16008A   25008.18260025 -.00000063  00000+0  00000+0 0  9993
2 41330  65.3147 330.9696 0011020 223.4693 136.4423  2.13102483 69437
IRNSS-1F                
1 41384U 16015A   25008.04071508  .00000169  00000+0  00000+0 0  9997
2 41384   4.0499 110.8221 0027103 188.0168 216.1403  1.00268800 32409
BEIDOU-2 IGSO-6 (C13)   
1 41434U 16021A   25008.05346605 -.00000163  00000+0  00000+0 0  9999
2 41434  59.4791  43.2850 0055124 228.0208 312.7794  1.00274390 32211
IRNSS-1G                
1 41469U 16027A   25007.60888344 -.00000325  00000+0  00000+0 0  9994
2 41469   3.9163 111.8639 0003121 305.9937  38.1177  1.00264116 31901
GSAT0211 (GALILEO 14)   
1 41549U 16030A   25002.52404367  .00000073  00000+0  00000+0 0  9991
2 41549  55.2788 236.2917 0004000  17.2371 342.8748  1.70473162 53606
GSAT0210 (GALILEO 13)   
1 41550U 16030B   25008.06114515  .00000066  00000+0  00000+0 0  9993
2 41550  55.2762 236.1372 0000560 215.3893 144.6865  1.70473580 53715
BEIDOU-2 G7 (C03)       
1 41586U 16037A   25008.62959778 -.00000343  00000+0  00000+0 0  9998
2 41586   1.8722  67.8177 0007976 339.5800  38.1421  1.00265978  1636
E 117 W B (WAAS/PRN 131)
1 41589U 16038B   25008.33963399  .00000001  00000+0  00000+0 0  9994
2 41589   0.0078 167.3936 0000304 210.3728  95.6316  1.00272326 31400
GSAT0207 (GALILEO 15)   
1 41859U 16069A   25007.75328730 -.00000006  00000+0  00000+0 0  9993
2 41859  55.1904 115.6447 0002968 296.9232  63.0326  1.70474476 50442
GSAT0212 (GALILEO 16)   
1 41860U 16069B   25005.84762006  .00000010  00000+0  00000+0 0  9995
2 41860  55.1872 115.6937 0001608 352.8738   7.1168  1.70474698 50668
GSAT0213 (GALILEO 17)   
1 41861U 16069C   25006.80241680  .00000003  00000+0  00000+0 0  9995
2 41861  55.1896 115.6742 0003328 270.2747  89.6775  1.70474977 50549
GSAT0214 (GALILEO 18)   
1 41862U 16069D   25007.53446331 -.00000004  00000+0  00000+0 0  9999
2 41862  55.1884 115.6471 0002123 265.8271  94.1358  1.70474783 50688
SES-15 (WAAS/PRN 133)   
1 42709U 17026A   25006.52341199  .00000074  00000+0  00000+0 0  9994
2 42709   0.0171  16.5788 0000419 258.2972 250.7255  1.00268448 28905
QZS-2 (QZSS/PRN 194)    
1 42738U 17028A   25008.45299021 -.00000111  00000+0  00000+0 0  9991
2 42738  40.2438 250.7953 0753667 269.7438 252.6031  1.00277652  2361
QZS-3 (QZSS/PRN 199)    
1 42917U 17048A   25008.64438785 -.00000337  00000+0  00000+0 0  9995
2 42917   0.0582 200.7203 0002452  90.5032 176.1787  1.00267267 27003
COSMOS 2522 (752)       
1 42939U 17055A   25008.49145398  .00000123  00000+0  00000+0 0  9997
2 42939  64.0785 209.7549 0005683 226.0201 133.9868  2.13101841 56796
QZS-4 (QZSS/PRN 195)    
1 42965U 17062A   24362.55006255 -.00000326  00000+0  00000+0 0  9997
2 42965  40.4220 350.3323 0751752 271.9012 167.8126  1.00248203 26423
BEIDOU-3 M1 (C19)       
1 43001U 17069A   25006.38074819 -.00000038  00000+0  00000+0 0  9994
2 43001  56.2299  80.5034 0010162 297.1779  62.7651  1.86230951 48795
BEIDOU-3 M2 (C20)       
1 43002U 17069B   25006.85535279 -.00000043  00000+0  00000+0 0  9995
2 43002  56.2298  80.5238 0007455 319.7232  40.2664  1.86230793 48796
GSAT0215 (GALILEO 19)   
1 43055U 17079A   25005.09169131  .00000062  00000+0  00000+0 0  9999
2 43055  55.2548 236.0398 0001188 359.6663   0.4158  1.70473890 43986
GSAT0216 (GALILEO 20)   
1 43056U 17079B   25007.72956569  .00000065  00000+0  00000+0 0  9994
2 43056  55.2534 235.9670 0002217 327.3418  32.7233  1.70473966 44041
GSAT0217 (GALILEO 21)   
1 43057U 17079C   25006.77695455  .00000062  00000+0  00000+0 0  9990
2 43057  55.2525 235.9917 0002618 351.7677   8.3060  1.70473947 44012
GSAT0218 (GALILEO 22)   
1 43058U 17079D   25005.23725334  .00000062  00000+0  00000+0 0  9991
2 43058  55.2534 236.0318 0002314 312.8781  47.1840  1.70473945 44012
BEIDOU-3 M7 (C27)       
1 43107U 18003A   25005.52864443 -.00000070  00000+0  00000+0 0  9991
2 43107  54.7835 320.6463 0003175  53.6944 306.3394  1.86232208 47528
BEIDOU-3 M8 (C28)       
1 43108U 18003B   25008.15551296 -.00000089  00000+0  00000+0 0  9993
2 43108  54.7742 320.5400 0004630 277.2628  82.6831  1.86230707 47584
BEIDOU-3 M4 (C22)       
1 43207U 18018A   25006.44888593 -.00000038  00000+0  00000+0 0  9996
2 43207  56.1888  80.5833 0004444 348.8783  11.1581  1.86230862 46933
BEIDOU-3 M3 (C21)       
1 43208U 18018B   25007.58935885 -.00000050  00000+0  00000+0 0  9994
2 43208  56.1892  80.5495 0007665 307.6463  52.3265  1.86231037 46952
BEIDOU-3 M9 (C29)       
1 43245U 18029A   25008.34567450 -.00000089  00000+0  00000+0 0  9993
2 43245  54.6578 318.2366 0001847 293.9129  66.0671  1.86232272 46121
BEIDOU-3 M10 (C30)      
1 43246U 18029B   25008.27524331 -.00000088  00000+0  00000+0 0  9996
2 43246  54.6555 318.2665 0004676 356.4693   3.5268  1.86228728 46111
IRNSS-1I                
1 43286U 18035A   24362.79771931  .00000084  00000+0  00000+0 0  9991
2 43286  29.1488  82.5817 0022150 185.2206 171.1934  1.00276436 24698
COSMOS 2527 (756)       
1 43508U 18053A   25008.45105165 -.00000036  00000+0  00000+0 0  9997
2 43508  65.2959  91.4491 0009228 231.1550 128.7977  2.13102159 51094
BEIDOU-2 IGSO-7 (C16)   
1 43539U 18057A   25007.86889970 -.00000057  00000+0  00000+0 0  9995
2 43539  55.1592 167.6020 0079614 232.0620 130.6419  1.00248757 23875
GSAT0221 (GALILEO 25)   
1 43564U 18060A   25008.07120893 -.00000077  00000+0  00000+0 0  9995
2 43564  57.2933 355.9481 0006495 286.1940  73.7394  1.70475520 40213
GSAT0222 (GALILEO 26)   
1 43565U 18060B   25008.29002306 -.00000078  00000+0  00000+0 0  9999
2 43565  57.2967 355.9444 0005608 265.6942  94.2462  1.70475204 40267
GSAT0219 (GALILEO 23)   
1 43566U 18060C   25007.33843868 -.00000074  00000+0  00000+0 0  9996
2 43566  57.2962 355.9721 0005666 292.6300  67.3160  1.70475488 40229
GSAT0220 (GALILEO 24)   
1 43567U 18060D   25008.14578999 -.00000077  00000+0  00000+0 0  9990
2 43567  57.2959 355.9504 0005953 288.2210  71.7189  1.70475209 40226
BEIDOU-3 M5 (C23)       
1 43581U 18062A   25007.96431056  .00000126  00000+0  00000+0 0  9993
2 43581  54.1127 200.1627 0001636 354.0877   5.9436  1.86228453 43857
BEIDOU-3 M6 (C24)       
1 43582U 18062B   25005.68124587  .00000113  00000+0  00000+0 0  9995
2 43582  54.1125 200.2299 0007413  45.2064 314.8839  1.86229423 43811
BEIDOU-3 M12 (C26)      
1 43602U 18067A   25007.22641920  .00000124  00000+0  00000+0 0  9992
2 43602  54.2043 198.8775 0008696  36.9098 323.1801  1.86227658 43329
